CAS-2T & KS-1Q          
1 41847U 16066G   23084.90415900  .00003155  00000+0  47393-3 0  9990
2 41847  98.5112 153.8396 0361894  87.2953 276.9594 14.39430104334823
NAYIF-1 (EO-88)         
1 42017U 17008BX  23084.67344387  .00115562  00000+0  16484-2 0  9993
2 42017  97.2224 153.8076 0002282 284.3769  75.7232 15.55891766340393
ZHUHAI-1 02 (CAS-4B)    
1 42759U 17034B   23084.83751814  .00019210  00000+0  99725-3 0  9993
2 42759  43.0163 218.4960 0011938 282.4514 209.4825 15.15737357318987
ZHUHAI-1 01 (CAS-4A)    
1 42761U 17034D   23084.85683236  .00018990  00000+0  98348-3 0  9994
2 42761  43.0163 216.9469 0012385 285.0509 212.6857 15.15822292318992
MAX VALIER SAT          
1 42778U 17036P   23084.82872629  .00027060  00000+0  80032-3 0  9996
2 42778  97.1687 121.8153 0009900  55.0646 305.1527 15.34836762319925
RADFXSAT (FOX-1B)       
1 43017U 17073E   23084.93122975  .00012891  00000+0  91661-3 0  9994
2 43017  97.6415 332.5731 0237238 344.3603  15.0369 14.84811652288823
FOX-1D (AO-92)          
1 43137U 18004AC  23084.74482707  .00044415  00000+0  11090-2 0  9997
2 43137  97.3341 163.3778 0006855  88.6899 271.5132 15.40013647289443
DIWATA-2B               
1 43678U 18084H   23084.89767117  .00004161  00000+0  40473-3 0  9994
2 43678  98.0084 227.2741 0010884  79.3200 280.9238 14.93079573239831
ES'HAIL 2               
1 43700U 18090A   23084.85036685  .00000135  00000+0  00000+0 0  9997
2 43700   0.0112 207.0066 0001101 147.9722 159.9773  1.00270070 15853
FOX-1CLIFF (AO-95)      
1 43770U 18099N   23084.73958873  .00008754  00000+0  72781-3 0  9996
2 43770  97.5832 148.5421 0014984  55.4687 304.7949 14.98855476235107
ITASAT 1                
1 43786U 18099AE  23084.92752114  .00008369  00000+0  69935-3 0  9993
2 43786  97.5845 149.7561 0015444  50.3453 309.9130 14.98666068235176
JY1SAT (JO-97)          
1 43803U 18099AX  23084.41449295  .00010125  00000+0  82192-3 0  9993
2 43803  97.5820 149.1761 0015009  43.3224 316.9177 14.99734388235137
UWE-4                   
1 43880U 18111E   23084.73128511  .00011084  00000+0  86891-3 0  9998
2 43880  97.6458 351.2373 0018105  94.4611 265.8681 15.01010404231848
NEXUS (FO-99)           
1 43937U 19003F   23084.80589663  .00054541  00000+0  11867-2 0  9994
2 43937  97.0988 113.5149 0014628 211.5189 148.5185 15.44016070233144
JAISAT-1                
1 44419U 19038F   23084.94135306  .00032485  00000+0  12608-2 0  9991
2 44419  97.6709  64.1783 0013493 226.3851 133.6268 15.25949529205825
DUCHIFAT-3              
1 44854U 19089C   23084.79677155  .00017583  00000+0  12264-2 0  9996
2 44854  36.9641 229.1257 0008687 353.6803 120.8489 15.04703424180260
CAS-6 (TIANQIN 1)       
1 44881U 19093C   23084.80181631  .00002879  00000+0  36612-3 0  9998
2 44881  97.8646 164.6719 0014476 355.3569   4.7486 14.82307988176440
RS-44 & BREEZE-KM R/B   
1 44909U 19096E   23084.88107714  .00000034  00000+0  90430-4 0  9990
2 44909  82.5230  43.2907 0218029  22.0366 338.9935 12.79719343151502
HUSKYSAT-1 (HO-107)     
1 45119U 19071J   23084.27776348  .00503668  10734-3  16414-2 0  9993
2 45119  51.6240  95.8732 0009642  71.4384 288.7668 15.90034758177082
BY70-2                  
1 45857U 20042B   23084.80458695  .00042082  00000+0  46852-2 0  9991
2 45857  97.9288 164.6264 0008925 268.5314  91.4829 14.86915592147135
SALSAT                  
1 46495U 20068K   23084.80844170  .00009315  00000+0  62771-3 0  9996
2 46495  97.7617  32.0269 0017224  47.5731 312.6950 15.06779902136510
BY70-3                  
1 46839U 20079N   23084.69604965  .00623213  15465-3  20117-2 0  9994
2 46839  97.1495 162.0651 0005761 271.4021 216.3707 15.90842627133898
RADFXSAT-2 (AO-109)     
1 47311U 21002C   23084.90080394  .00035560  00000+0  10518-2 0  9996
2 47311  60.6841  17.6622 0030404 130.3962 229.9791 15.34258295121481
UVSQ-SAT                
1 47438U 21006AB  23084.39694110  .00022668  00000+0  10047-2 0  9992
2 47438  97.3945 142.8280 0010309  25.2649 334.9089 15.21574130119894
DIY-1 (ARDUIQUBE)       
1 47963U 21022AH  23084.66257483  .00125505  00000+0  35109-2 0  9991
2 47963  97.5068 350.2108 0007308 210.8807 149.2008 15.36136001109672
XW-3 (CAS-9)            
1 50466U 21131B   23084.93095492  .00001708  00000+0  57015-3 0  9993
2 50466  98.5535 166.7377 0004862  45.2534 314.9049 14.38777498 65388
TEVEL-3                 
1 50988U 22002E   23084.91477171  .00037031  00000+0  16378-2 0  9990
2 50988  97.4420 152.6234 0009713 161.8017 312.8378 15.21547024 66088
TEVEL-8                 
1 50989U 22002F   23084.86401745  .00037751  00000+0  16723-2 0  9992
2 50989  97.4431 152.6198 0009938 162.3515 310.5479 15.21485205 66076
TEVEL-5                 
1 50998U 22002Q   23084.90135600  .00037849  00000+0  16399-2 0  9998
2 50998  97.4409 152.9025 0011091 159.3225 318.1924 15.22231202 66100
TEVEL-6                 
1 50999U 22002R   23084.82972801  .00038069  00000+0  16495-2 0  9994
2 50999  97.4402 152.8300 0010761 159.0362 293.7389 15.22232270 66098
TEVEL-1                 
1 51013U 22002AF  23084.99015368  .00036891  00000+0  16331-2 0  9996
2 51013  97.4420 152.6530 0009853 162.5155 323.5997 15.21515729 66097
TEVEL-7                 
1 51062U 22002CG  23084.94257405  .00037769  00000+0  16727-2 0  9999
2 51062  97.4436 152.6755 0009339 161.6650  11.6624 15.21499736 66086
TEVEL-4                 
1 51063U 22002CH  23084.87110222  .00037369  00000+0  16570-2 0  9999
2 51063  97.4446 152.5944 0009813 161.3468 320.8791 15.21456395 66071
TEVEL-2                 
1 51069U 22002CP  23084.84181302  .00037782  00000+0  16710-2 0  9994
2 51069  97.4415 152.5252 0009360 162.9938 262.0074 15.21545237 66076
GREENCUBE               
1 53106U 22080B   23080.11397462 -.00000003  00000+0  00000+0 0  9995
2 53106  70.1803 350.3243 0008309 206.6105 153.4129  6.42557126 16095
RS29S (SXC3-2110 CYCLO*)
1 53373U 22096D   23084.92561065  .00053356  00000+0  16416-2 0  9992
2 53373  97.4211 350.5624 0003630  94.6539  37.1152 15.33475975 34904
RS32S (SXC3-212 MONITO*)
1 53374U 22096E   23084.84902120  .00049245  00000+0  15307-2 0  9995
2 53374  97.4196 350.4661 0003791  87.9911 338.4861 15.33169829 34894
RS34S (SXC3-218 KUZBAS*)
1 53375U 22096F   23084.97714326  .00041689  00000+0  13492-2 0  9996
2 53375  97.4210 350.4619 0003605  88.9669 326.0713 15.31919418 34906
RS23S (SXC3-21 UTMN)    
1 53376U 22096G   23084.82706502  .00044834  00000+0  14331-2 0  9996
2 53376  97.4204 350.3503 0003864  78.9978 323.0370 15.32299452 34883
RS28S (SXC3-214 MIET-A*)
1 53377U 22096H   23084.92260247  .00039175  00000+0  12718-2 0  9998
2 53377  97.4214 350.4183 0003684  80.0177  51.6936 15.31831778 34890
RS26S (KAI-1)           
1 53378U 22096J   23084.82073727  .00034668  00000+0  11573-2 0  9993
2 53378  97.4219 350.2269 0003731  71.5144   1.8675 15.30959448 34870
RS19S (SXC3-219 ISOI)   
1 53381U 22096M   23084.97758824  .00042335  00000+0  13430-2 0  9995
2 53381  97.4203 350.6420 0005088  31.4829 104.8707 15.32550013 34914
RS21S (CUBESX-HSE-2)    
1 53383U 22096P   23084.88815163  .00044252  00000+0  13962-2 0  9997
2 53383  97.4213 350.5851 0004927  32.4550  29.8653 15.32713759 34900
RS30S (SXC3-217 SIREN)  
1 53384U 22096Q   23084.85626608  .00036652  00000+0  11874-2 0  9994
2 53384  97.4217 350.4786 0004954  29.0090  35.9982 15.31910298 34899
RS20S (GEOSCAN-EDELVEIS)
1 53385U 22096R   23084.89300917  .00056163  00000+0  16547-2 0  9992
2 53385  97.4192 350.8698 0005146  28.4960  33.8567 15.34829607 34950
RS33S (SXC3-215 VIZARD) 
1 53386U 22096S   23084.77044446  .00070280  00000+0  19377-2 0  9992
2 53386  97.4188 351.0391 0005576  29.1494  47.7922 15.36841380 34948
CAS-5A (FO-118)         
1 54684U 22167C   23084.96940679  .00023381  00000+0  13700-2 0  9991
2 54684  97.5476 223.3143 0013807 258.4464 241.2549 15.11716567 16090
